{
  "norad_id": 67648,
  "name": "STARLINK-36719",
  "history": [
    {
      "epoch": "2026-03-28T20:12:28.958112Z",
      "apogee_km": 466.5228378534093,
      "perigee_km": 464.17018509183526,
      "latitude_deg": -5.4236328470519936e-05,
      "longitude_deg": -7.530902681871173,
      "height_km": 468.41443433814635,
      "semi_major_axis_km": 6843.483511472622,
      "eccentricity": 0.00017189,
      "inclination_deg": 97.2858,
      "raan_deg": 121.8464,
      "arg_perigee_deg": 87.9836,
      "mean_anomaly_deg": 272.1603,
      "mean_motion_rev_day": 15.33511101
    },
    {
      "epoch": "2026-03-29T00:54:23.439456Z",
      "apogee_km": 468.4474941420767,
      "perigee_km": 462.18026182801714,
      "latitude_deg": -2.523834383463261e-05,
      "longitude_deg": -78.00977119705905,
      "height_km": 468.0288770636361,
      "semi_major_axis_km": 6843.450877985047,
      "eccentricity": 0.0004579,
      "inclination_deg": 97.2834,
      "raan_deg": 122.0375,
      "arg_perigee_deg": 82.8706,
      "mean_anomaly_deg": 277.3057,
      "mean_motion_rev_day": 15.3352207
    },
    {
      "epoch": "2026-03-30T01:57:53.479008Z",
      "apogee_km": 466.8293546589048,
      "perigee_km": 464.35466224944776,
      "latitude_deg": 2.170550281057121e-05,
      "longitude_deg": -93.88595101361258,
      "height_km": 469.10231651262467,
      "semi_major_axis_km": 6843.7290084541755,
      "eccentricity": 0.0001808,
      "inclination_deg": 97.2836,
      "raan_deg": 123.0656,
      "arg_perigee_deg": 108.9072,
      "mean_anomaly_deg": 251.2367,
      "mean_motion_rev_day": 15.33428587
    },
    {
      "epoch": "2026-03-30T05:05:49.615584Z",
      "apogee_km": 466.74081406819187,
      "perigee_km": 464.3749487476898,
      "latitude_deg": 1.407352906192566e-05,
      "longitude_deg": -140.87068964658428,
      "height_km": 469.08896785629213,
      "semi_major_axis_km": 6843.694881407941,
      "eccentricity": 0.00017285,
      "inclination_deg": 97.2837,
      "raan_deg": 123.1934,
      "arg_perigee_deg": 110.8764,
      "mean_anomaly_deg": 249.2664,
      "mean_motion_rev_day": 15.33440057
    },
    {
      "epoch": "2026-03-30T12:55:40.584288Z",
      "apogee_km": 467.12986761234606,
      "perigee_km": 464.0032532037385,
      "latitude_deg": -1.7213436590132773e-05,
      "longitude_deg": 101.66914456686207,
      "height_km": 468.5242325132955,
      "semi_major_axis_km": 6843.703560408042,
      "eccentricity": 0.00022843,
      "inclination_deg": 97.2836,
      "raan_deg": 123.5172,
      "arg_perigee_deg": 84.472,
      "mean_anomaly_deg": 275.6783,
      "mean_motion_rev_day": 15.3343714
    }
  ]
}